NORAD_CAT_ID,OBJECT_NAME,OBJECT_TYPE,EPOCH,MEAN_MOTION,ECCENTRICITY,INCLINATION,RA_OF_ASC_NODE,ARG_OF_PERICENTER,MEAN_ANOMALY,BSTAR,MEAN_MOTION_DOT,MEAN_MOTION_DDOT,TLE_LINE0,TLE_LINE1,TLE_LINE2,SEMIMAJOR_AXIS,PERIOD,APOGEE,PERIGEE,DECAYED
56795.0,STARLINK-6061,PAYLOAD,2023-10-01 20:21:05,15.69922526,0.0003522,69.9991,65.8497,268.1861,91.8931,-1.1975e-05,-1.652e-05,0.0,0 STARLINK-6061,1 56795U 23078AE  23274.84797730 -.00001652  00000-0 -11975-4 0  9998,2 56795  69.9991  65.8497 0003522 268.1861  91.8931 15.69922526 19446,6737.256,91.724,361.494,356.748,0.0
56795.0,STARLINK-6061,PAYLOAD,2023-10-02 19:17:21,15.69930352,0.0003549,69.9975,63.1629,271.1843,88.8946,6.8111e-06,6.06e-06,0.0,0 STARLINK-6061,1 56795U 23078AE  23275.80372122  .00000606  00000-0  68111-5 0  9990,2 56795  69.9975  63.1629 0003549 271.1843  88.8946 15.69930352 19852,6737.233,91.724,361.489,356.707,0.0
56795.0,STARLINK-6061,PAYLOAD,2023-10-03 13:38:23,15.69918743,0.0003546,69.9989,61.012,268.9075,91.1715,1.3362e-05,1.394e-05,0.0,0 STARLINK-6061,1 56795U 23078AE  23276.56832667  .00001394  00000-0  13362-4 0  9991,2 56795  69.9989  61.0120 0003546 268.9075  91.1715 15.69918743 19714,6737.266,91.724,361.521,356.742,0.0
56795.0,STARLINK-6061,PAYLOAD,2023-10-03 18:13:38,15.69918945,0.0003374,69.9968,60.4749,267.4578,92.6231,1.4256e-05,1.501e-05,0.0,0 STARLINK-6061,1 56795U 23078AE  23276.75947778  .00001501  00000-0  14256-4 0  9995,2 56795  69.9968  60.4749 0003374 267.4578  92.6231 15.69918945 20009,6737.266,91.724,361.404,356.858,0.0
56795.0,STARLINK-6061,PAYLOAD,2023-10-03 19:45:23,15.69926883,0.0003246,69.9986,60.2949,261.4434,98.6394,1.3594e-05,1.422e-05,0.0,0 STARLINK-6061,1 56795U 23078AE  23276.82318893  .00001422  00000-0  13594-4 0  9999,2 56795  69.9986  60.2949 0003246 261.4434  98.6394 15.69926883 19758,6737.243,91.724,361.295,356.921,0.0
56795.0,STARLINK-6061,PAYLOAD,2023-10-04 12:34:39,15.69926091,0.0003683,69.9978,58.325,278.2864,81.7914,1.4818e-05,1.569e-05,0.0,0 STARLINK-6061,1 56795U 23078AE  23277.52407179  .00001569  00000-0  14818-4 0  9995,2 56795  69.9978  58.3250 0003683 278.2864  81.7914 15.69926091 19864,6737.245,91.724,361.592,356.629,0.0
56795.0,STARLINK-6061,PAYLOAD,2023-10-04 18:41:41,15.69911528,0.0003041,69.9985,57.6089,270.2565,89.8282,-6.1494e-06,-9.51e-06,0.0,0 STARLINK-6061,1 56795U 23078AE  23277.77895283 -.00000951  00000-0 -61494-5 0  9998,2 56795  69.9985  57.6089 0003041 270.2565  89.8282 15.69911528 20163,6737.287,91.725,361.201,357.103,0.0
56795.0,STARLINK-6061,PAYLOAD,2023-10-05 02:20:26,15.6992462,0.0003253,69.9983,56.7134,273.333,86.7494,9.9334e-06,9.82e-06,0.0,0 STARLINK-6061,1 56795U 23078AE  23278.09752638  .00000982  00000-0  99334-5 0  9996,2 56795  69.9983  56.7134 0003253 273.3330  86.7494 15.69924620 20215,6737.25,91.724,361.306,356.923,0.0
56795.0,STARLINK-6061,PAYLOAD,2023-10-05 13:02:42,15.69923386,0.0003483,69.9992,55.4595,273.4422,86.6375,6.3354e-06,5.49e-06,0.0,0 STARLINK-6061,1 56795U 23078AE  23278.54354288  .00000549  00000-0  63354-5 0  9997,2 56795  69.9992  55.4595 0003483 273.4422  86.6375 15.69923386 20024,6737.253,91.724,361.465,356.772,0.0
56795.0,STARLINK-6061,PAYLOAD,2023-10-05 19:09:42,15.69927594,0.0003863,69.9994,54.7431,274.8674,85.2081,-8.259e-07,-3.12e-06,0.0,0 STARLINK-6061,1 56795U 23078AE  23278.79840692 -.00000312  00000-0 -82590-6 0  9997,2 56795  69.9994  54.7431 0003863 274.8674  85.2081 15.69927594 20061,6737.241,91.724,361.709,356.504,0.0
56795.0,STARLINK-6061,PAYLOAD,2023-10-06 10:27:14,15.69918175,0.000346,69.9995,52.9509,273.2038,86.8762,1.603e-06,-2e-07,0.0,0 STARLINK-6061,1 56795U 23078AE  23279.43558097 -.00000020  00000-0  16030-5 0  9994,2 56795  69.9995  52.9509 0003460 273.2038  86.8762 15.69918175 20426,6737.268,91.725,361.464,356.802,0.0
56795.0,STARLINK-6061,PAYLOAD,2023-10-06 11:58:59,15.69918562,0.0003466,69.9991,52.7717,270.6168,89.463,2.1695e-06,4.8e-07,0.0,0 STARLINK-6061,1 56795U 23078AE  23279.49929739  .00000048  00000-0  21695-5 0  9997,2 56795  69.9991  52.7717 0003466 270.6168  89.4630 15.69918562 20177,6737.267,91.725,361.467,356.797,0.0
56795.0,STARLINK-6061,PAYLOAD,2023-10-06 18:05:59,15.69932957,0.0003243,69.9992,52.0547,271.3811,88.7013,2.8606e-05,3.229e-05,0.0,0 STARLINK-6061,1 56795U 23078AE  23279.75415763  .00003229  00000-0  28606-4 0  9995,2 56795  69.9992  52.0547 0003243 271.3811  88.7013 15.69932957 20472,6737.226,91.724,361.276,356.906,0.0
56795.0,STARLINK-6061,PAYLOAD,2023-10-07 10:55:15,15.69929767,0.0002964,70.0006,50.0848,272.929,87.1566,1.4689e-05,1.554e-05,0.0,0 STARLINK-6061,1 56795U 23078AE  23280.45504374  .00001554  00000-0  14689-4 0  9996,2 56795  70.0006  50.0848 0002964 272.9290  87.1566 15.69929767 20583,6737.235,91.724,361.097,357.103,0.0
56795.0,STARLINK-6061,PAYLOAD,2023-10-07 12:27:00,15.69929264,0.000297,70.0006,49.9057,272.7928,87.2928,1.3695e-05,1.435e-05,0.0,0 STARLINK-6061,1 56795U 23078AE  23280.51876058  .00001435  00000-0  13695-4 0  9998,2 56795  70.0006  49.9057 0002970 272.7928  87.2928 15.69929264 20333,6737.236,91.724,361.102,357.1,0.0
56795.0,STARLINK-6061,PAYLOAD,2023-10-07 18:34:01,15.69923889,0.0003383,69.9998,49.1892,272.4187,87.6622,1.3024e-05,1.354e-05,0.0,0 STARLINK-6061,1 56795U 23078AE  23280.77362990  .00001354  00000-0  13024-4 0  9997,2 56795  69.9998  49.1892 0003383 272.4187  87.6622 15.69923889 20637,6737.252,91.724,361.396,356.838,0.0
56795.0,STARLINK-6061,PAYLOAD,2023-10-08 09:51:32,15.69934753,0.0003629,69.9995,47.399,269.4673,90.6107,1.8235e-05,1.981e-05,0.0,0 STARLINK-6061,1 56795U 23078AE  23281.41079115  .00001981  00000-0  18235-4 0  9998,2 56795  69.9995  47.3990 0003629 269.4673  90.6107 15.69934753 20737,6737.221,91.724,361.531,356.641,0.0
56795.0,STARLINK-6061,PAYLOAD,2023-10-08 12:55:02,15.69931208,0.0003651,69.9996,47.0396,274.3816,85.6962,9.4807e-06,9.28e-06,0.0,0 STARLINK-6061,1 56795U 23078AE  23281.53822622  .00000928  00000-0  94807-5 0  9990,2 56795  69.9996  47.0396 0003651 274.3816  85.6962 15.69931208 20492,6737.231,91.724,361.556,356.636,0.0
56795.0,STARLINK-6061,PAYLOAD,2023-10-08 17:30:18,15.69932119,0.0003608,69.9992,46.5026,275.0749,85.0035,1.1811e-05,1.208e-05,0.0,0 STARLINK-6061,1 56795U 23078AE  23281.72937549  .00001208  00000-0  11811-4 0  9991,2 56795  69.9992  46.5026 0003608 275.0749  85.0035 15.69932119 20528,6737.228,91.724,361.524,356.662,0.0
56795.0,STARLINK-6061,PAYLOAD,2023-10-09 08:47:50,15.69918309,0.0003376,70.0001,44.7104,281.1285,78.9531,-6.0814e-06,-9.44e-06,0.0,0 STARLINK-6061,1 56795U 23078AE  23282.36655161 -.00000944  00000-0 -60814-5 0  9995,2 56795  70.0001  44.7104 0003376 281.1285  78.9531 15.69918309 20880,6737.268,91.725,361.407,356.858,0.0
56795.0,STARLINK-6061,PAYLOAD,2023-10-09 11:51:20,15.6992154,0.0003252,70.0003,44.3521,274.2571,85.8253,1.1925e-06,-6.9e-07,0.0,0 STARLINK-6061,1 56795U 23078AE  23282.49398301 -.00000069  00000-0  11925-5 0  9995,2 56795  70.0003  44.3521 0003252 274.2571  85.8253 15.69921540 20648,6737.258,91.724,361.314,356.933,0.0
56795.0,STARLINK-6061,PAYLOAD,2023-10-09 17:58:20,15.69926661,0.0002986,69.9992,43.636,264.0081,96.0775,8.908e-06,8.59e-06,0.0,0 STARLINK-6061,1 56795U 23078AE  23282.74884839  .00000859  00000-0  89080-5 0  9992,2 56795  69.9992  43.6360 0002986 264.0081  96.0775 15.69926661 20946,6737.244,91.724,361.121,357.097,0.0
56795.0,STARLINK-6061,PAYLOAD,2023-10-10 10:47:36,15.69928491,0.0003098,70.0002,41.6656,262.8917,97.1926,7.591e-07,-1.21e-06,0.0,0 STARLINK-6061,1 56795U 23078AE  23283.44972911 -.00000121  00000-0  75910-6 0  9990,2 56795  70.0002  41.6656 0003098 262.8917  97.1926 15.69928491 20792,6737.239,91.724,361.191,357.016,0.0
56795.0,STARLINK-6061,PAYLOAD,2023-10-10 16:54:37,15.69914956,0.0003497,70.0,40.9477,273.6441,86.4355,4.1415e-06,2.85e-06,0.0,0 STARLINK-6061,1 56795U 23078AE  23283.70460417  .00000285  00000-0  41415-5 0  9994,2 56795  70.0000  40.9477 0003497 273.6441  86.4355 15.69914956 21090,6737.277,91.725,361.498,356.786,0.0
56795.0,STARLINK-6061,PAYLOAD,2023-10-11 14:19:09,15.69918401,0.0002949,69.9995,38.4397,272.9418,87.1441,1.4908e-05,1.58e-05,0.0,0 STARLINK-6061,1 56795U 23078AE  23284.59663822  .00001580  00000-0  14908-4 0  9992,2 56795  69.9995  38.4397 0002949 272.9418  87.1441 15.69918401 20979,6737.267,91.725,361.119,357.146,0.0
56795.0,STARLINK-6061,PAYLOAD,2023-10-11 17:22:39,15.69927128,0.0002972,70.0006,38.0814,269.553,90.5325,1.7164e-05,1.852e-05,0.0,0 STARLINK-6061,1 56795U 23078AE  23284.72406717  .00001852  00000-0  17164-4 0  9994,2 56795  70.0006  38.0814 0002972 269.5530  90.5325 15.69927128 21255,6737.242,91.724,361.11,357.105,0.0
56795.0,STARLINK-6061,PAYLOAD,2023-10-12 10:11:55,15.69924612,0.0003064,70.0005,36.1127,270.1869,89.8975,1.8092e-05,1.963e-05,0.0,0 STARLINK-6061,1 56795U 23078AE  23285.42495261  .00001963  00000-0  18092-4 0  9998,2 56795  70.0005  36.1127 0003064 270.1869  89.8975 15.69924612 21107,6737.25,91.724,361.179,357.05,0.0
56795.0,STARLINK-6061,PAYLOAD,2023-10-12 17:50:41,15.69927372,0.0003111,69.9988,35.2161,265.0108,95.0732,1.6327e-05,1.751e-05,0.0,0 STARLINK-6061,1 56795U 23078AE  23285.74353386  .00001751  00000-0  16327-4 0  9998,2 56795  69.9988  35.2161 0003111 265.0108  95.0732 15.69927372 21414,6737.242,91.724,361.203,357.011,0.0
56795.0,STARLINK-6061,PAYLOAD,2023-10-13 10:39:58,15.69915155,0.0002768,69.9987,33.2455,269.7166,90.3712,1.8965e-05,2.067e-05,0.0,0 STARLINK-6061,1 56795U 23078AE  23286.44442502  .00002067  00000-0  18965-4 0  9996,2 56795  69.9987  33.2455 0002768 269.7166  90.3712 15.69915155 21523,6737.277,91.725,361.007,357.277,0.0
56795.0,STARLINK-6061,PAYLOAD,2023-10-13 13:43:27,15.69931391,0.0002832,69.9984,32.8867,274.0687,86.0185,2.5525e-05,2.858e-05,0.0,0 STARLINK-6061,1 56795U 23078AE  23286.57184794  .00002858  00000-0  25525-4 0  9994,2 56795  69.9984  32.8867 0002832 274.0687  86.0185 15.69931391 21280,6737.23,91.724,361.003,357.187,0.0
